<?xml version="1.0" encoding="UTF-8" standalone="yes"?>
<gpx version="1.1" creator="https://onthegomap.com" xmlns="http://www.topografix.com/GPX/1/1">
  <metadata>
    <name>16.8km route</name>
    <link href="https://onthegomap.com">
      <text>On The Go Map</text>
    </link>
    <time>2026-05-17T08:31:24.927Z</time>
    <copyright author="On The Go Map, OpenStreetMap Contributors">
      <year>2026</year>
    </copyright>
  </metadata>
  <trk>
    <name>16.8km route</name>
    <trkseg>
      <trkpt lat="-33.74243" lon="151.07888"/>
      <trkpt lat="-33.74203" lon="151.07896"/>
      <trkpt lat="-33.74199" lon="151.07923"/>
      <trkpt lat="-33.74217" lon="151.07936"/>
      <trkpt lat="-33.74314" lon="151.0792"/>
      <trkpt lat="-33.74333" lon="151.079"/>
      <trkpt lat="-33.74336" lon="151.07874"/>
      <trkpt lat="-33.74322" lon="151.0785"/>
      <trkpt lat="-33.74309" lon="151.07842"/>
      <trkpt lat="-33.7431" lon="151.07832"/>
      <trkpt lat="-33.74325" lon="151.07836"/>
      <trkpt lat="-33.74331" lon="151.07834"/>
      <trkpt lat="-33.74336" lon="151.07836"/>
      <trkpt lat="-33.74338" lon="151.07837"/>
      <trkpt lat="-33.74352" lon="151.07833"/>
      <trkpt lat="-33.74356" lon="151.07854"/>
      <trkpt lat="-33.74357" lon="151.07859"/>
      <trkpt lat="-33.74357" lon="151.07871"/>
      <trkpt lat="-33.74355" lon="151.07911"/>
      <trkpt lat="-33.74351" lon="151.07957"/>
      <trkpt lat="-33.74346" lon="151.07986"/>
      <trkpt lat="-33.7435" lon="151.07987"/>
      <trkpt lat="-33.74349" lon="151.07993"/>
      <trkpt lat="-33.74341" lon="151.0804"/>
      <trkpt lat="-33.74333" lon="151.08084"/>
      <trkpt lat="-33.74333" lon="151.0811"/>
      <trkpt lat="-33.74335" lon="151.08123"/>
      <trkpt lat="-33.74337" lon="151.08136"/>
      <trkpt lat="-33.74347" lon="151.08157"/>
      <trkpt lat="-33.74372" lon="151.08189"/>
      <trkpt lat="-33.74411" lon="151.08237"/>
      <trkpt lat="-33.74439" lon="151.0827"/>
      <trkpt lat="-33.74463" lon="151.08314"/>
      <trkpt lat="-33.74485" lon="151.08378"/>
      <trkpt lat="-33.7449" lon="151.08436"/>
      <trkpt lat="-33.74493" lon="151.0852"/>
      <trkpt lat="-33.74501" lon="151.08546"/>
      <trkpt lat="-33.74513" lon="151.08559"/>
      <trkpt lat="-33.74524" lon="151.08559"/>
      <trkpt lat="-33.74561" lon="151.08556"/>
      <trkpt lat="-33.74584" lon="151.08555"/>
      <trkpt lat="-33.74587" lon="151.08577"/>
      <trkpt lat="-33.74603" lon="151.08584"/>
      <trkpt lat="-33.74646" lon="151.08604"/>
      <trkpt lat="-33.74662" lon="151.08622"/>
      <trkpt lat="-33.74676" lon="151.08656"/>
      <trkpt lat="-33.74697" lon="151.08706"/>
      <trkpt lat="-33.74711" lon="151.08745"/>
      <trkpt lat="-33.7471" lon="151.08777"/>
      <trkpt lat="-33.74722" lon="151.08785"/>
      <trkpt lat="-33.74762" lon="151.08771"/>
      <trkpt lat="-33.74766" lon="151.08769"/>
      <trkpt lat="-33.74786" lon="151.08767"/>
      <trkpt lat="-33.74826" lon="151.08774"/>
      <trkpt lat="-33.74851" lon="151.08768"/>
      <trkpt lat="-33.74864" lon="151.08762"/>
      <trkpt lat="-33.74886" lon="151.08738"/>
      <trkpt lat="-33.74894" lon="151.0874"/>
      <trkpt lat="-33.74899" lon="151.08747"/>
      <trkpt lat="-33.74918" lon="151.08793"/>
      <trkpt lat="-33.74923" lon="151.08804"/>
      <trkpt lat="-33.74945" lon="151.08857"/>
      <trkpt lat="-33.74962" lon="151.08912"/>
      <trkpt lat="-33.74971" lon="151.08968"/>
      <trkpt lat="-33.74976" lon="151.08994"/>
      <trkpt lat="-33.74975" lon="151.09019"/>
      <trkpt lat="-33.74963" lon="151.09061"/>
      <trkpt lat="-33.74961" lon="151.09108"/>
      <trkpt lat="-33.74966" lon="151.09162"/>
      <trkpt lat="-33.74968" lon="151.09195"/>
      <trkpt lat="-33.74967" lon="151.09247"/>
      <trkpt lat="-33.74972" lon="151.09294"/>
      <trkpt lat="-33.74999" lon="151.09382"/>
      <trkpt lat="-33.75" lon="151.09383"/>
      <trkpt lat="-33.75001" lon="151.09395"/>
      <trkpt lat="-33.75003" lon="151.09402"/>
      <trkpt lat="-33.74999" lon="151.09418"/>
      <trkpt lat="-33.74985" lon="151.09449"/>
      <trkpt lat="-33.74987" lon="151.09474"/>
      <trkpt lat="-33.74979" lon="151.09517"/>
      <trkpt lat="-33.7497" lon="151.09622"/>
      <trkpt lat="-33.74971" lon="151.09676"/>
      <trkpt lat="-33.7499" lon="151.09713"/>
      <trkpt lat="-33.7498" lon="151.09745"/>
      <trkpt lat="-33.74983" lon="151.0977"/>
      <trkpt lat="-33.74997" lon="151.09775"/>
      <trkpt lat="-33.75018" lon="151.09772"/>
      <trkpt lat="-33.75066" lon="151.0982"/>
      <trkpt lat="-33.75082" lon="151.09832"/>
      <trkpt lat="-33.75098" lon="151.09837"/>
      <trkpt lat="-33.7511" lon="151.09841"/>
      <trkpt lat="-33.75139" lon="151.09859"/>
      <trkpt lat="-33.75166" lon="151.09885"/>
      <trkpt lat="-33.75174" lon="151.09908"/>
      <trkpt lat="-33.75199" lon="151.09963"/>
      <trkpt lat="-33.75205" lon="151.09975"/>
      <trkpt lat="-33.75204" lon="151.09989"/>
      <trkpt lat="-33.75215" lon="151.10006"/>
      <trkpt lat="-33.75261" lon="151.1"/>
      <trkpt lat="-33.75268" lon="151.10013"/>
      <trkpt lat="-33.75264" lon="151.10022"/>
      <trkpt lat="-33.75268" lon="151.10029"/>
      <trkpt lat="-33.75272" lon="151.10031"/>
      <trkpt lat="-33.7528" lon="151.10033"/>
      <trkpt lat="-33.7529" lon="151.10029"/>
      <trkpt lat="-33.75326" lon="151.10033"/>
      <trkpt lat="-33.75329" lon="151.10033"/>
      <trkpt lat="-33.75339" lon="151.10042"/>
      <trkpt lat="-33.75356" lon="151.10049"/>
      <trkpt lat="-33.75387" lon="151.10056"/>
      <trkpt lat="-33.75422" lon="151.1007"/>
      <trkpt lat="-33.75433" lon="151.10078"/>
      <trkpt lat="-33.75439" lon="151.1009"/>
      <trkpt lat="-33.75438" lon="151.10102"/>
      <trkpt lat="-33.75422" lon="151.10136"/>
      <trkpt lat="-33.75403" lon="151.10159"/>
      <trkpt lat="-33.75397" lon="151.10174"/>
      <trkpt lat="-33.75397" lon="151.10183"/>
      <trkpt lat="-33.75418" lon="151.10231"/>
      <trkpt lat="-33.75428" lon="151.10241"/>
      <trkpt lat="-33.75438" lon="151.10252"/>
      <trkpt lat="-33.75452" lon="151.10265"/>
      <trkpt lat="-33.75483" lon="151.10273"/>
      <trkpt lat="-33.7556" lon="151.10323"/>
      <trkpt lat="-33.7558" lon="151.10348"/>
      <trkpt lat="-33.75606" lon="151.10372"/>
      <trkpt lat="-33.75635" lon="151.10395"/>
      <trkpt lat="-33.7565" lon="151.10415"/>
      <trkpt lat="-33.75651" lon="151.10434"/>
      <trkpt lat="-33.7565" lon="151.10467"/>
      <trkpt lat="-33.75649" lon="151.10473"/>
      <trkpt lat="-33.75695" lon="151.10498"/>
      <trkpt lat="-33.75711" lon="151.10514"/>
      <trkpt lat="-33.75719" lon="151.10529"/>
      <trkpt lat="-33.75727" lon="151.10544"/>
      <trkpt lat="-33.75743" lon="151.1056"/>
      <trkpt lat="-33.75757" lon="151.10567"/>
      <trkpt lat="-33.75774" lon="151.10566"/>
      <trkpt lat="-33.75851" lon="151.10535"/>
      <trkpt lat="-33.75884" lon="151.10531"/>
      <trkpt lat="-33.7591" lon="151.10536"/>
      <trkpt lat="-33.75957" lon="151.10561"/>
      <trkpt lat="-33.75974" lon="151.10566"/>
      <trkpt lat="-33.76006" lon="151.10565"/>
      <trkpt lat="-33.76049" lon="151.10559"/>
      <trkpt lat="-33.76065" lon="151.10556"/>
      <trkpt lat="-33.76071" lon="151.10554"/>
      <trkpt lat="-33.76088" lon="151.10565"/>
      <trkpt lat="-33.76094" lon="151.10575"/>
      <trkpt lat="-33.76094" lon="151.10581"/>
      <trkpt lat="-33.7609" lon="151.10589"/>
      <trkpt lat="-33.76086" lon="151.10593"/>
      <trkpt lat="-33.76062" lon="151.10601"/>
      <trkpt lat="-33.76061" lon="151.10611"/>
      <trkpt lat="-33.76062" lon="151.10616"/>
      <trkpt lat="-33.76073" lon="151.10631"/>
      <trkpt lat="-33.76086" lon="151.10648"/>
      <trkpt lat="-33.7609" lon="151.10656"/>
      <trkpt lat="-33.76094" lon="151.10676"/>
      <trkpt lat="-33.76094" lon="151.10688"/>
      <trkpt lat="-33.76092" lon="151.10696"/>
      <trkpt lat="-33.76085" lon="151.10708"/>
      <trkpt lat="-33.76078" lon="151.10721"/>
      <trkpt lat="-33.7606" lon="151.10763"/>
      <trkpt lat="-33.76033" lon="151.1081"/>
      <trkpt lat="-33.76017" lon="151.10823"/>
      <trkpt lat="-33.75998" lon="151.10832"/>
      <trkpt lat="-33.7599" lon="151.1083"/>
      <trkpt lat="-33.75949" lon="151.10858"/>
      <trkpt lat="-33.75936" lon="151.10867"/>
      <trkpt lat="-33.75911" lon="151.10889"/>
      <trkpt lat="-33.75888" lon="151.10914"/>
      <trkpt lat="-33.75874" lon="151.10933"/>
      <trkpt lat="-33.75868" lon="151.10941"/>
      <trkpt lat="-33.75862" lon="151.1095"/>
      <trkpt lat="-33.75814" lon="151.1102"/>
      <trkpt lat="-33.75729" lon="151.11075"/>
      <trkpt lat="-33.75769" lon="151.11122"/>
      <trkpt lat="-33.75773" lon="151.11127"/>
      <trkpt lat="-33.75759" lon="151.11145"/>
      <trkpt lat="-33.75693" lon="151.11226"/>
      <trkpt lat="-33.75612" lon="151.11328"/>
      <trkpt lat="-33.75588" lon="151.11354"/>
      <trkpt lat="-33.75578" lon="151.11359"/>
      <trkpt lat="-33.75562" lon="151.1136"/>
      <trkpt lat="-33.75499" lon="151.11361"/>
      <trkpt lat="-33.75432" lon="151.11362"/>
      <trkpt lat="-33.75369" lon="151.11368"/>
      <trkpt lat="-33.75306" lon="151.11374"/>
      <trkpt lat="-33.75311" lon="151.11443"/>
      <trkpt lat="-33.75325" lon="151.11492"/>
      <trkpt lat="-33.75332" lon="151.11521"/>
      <trkpt lat="-33.75335" lon="151.11535"/>
      <trkpt lat="-33.75327" lon="151.11549"/>
      <trkpt lat="-33.75316" lon="151.11548"/>
      <trkpt lat="-33.753" lon="151.11555"/>
      <trkpt lat="-33.75295" lon="151.11578"/>
      <trkpt lat="-33.75331" lon="151.11622"/>
      <trkpt lat="-33.75338" lon="151.11639"/>
      <trkpt lat="-33.7534" lon="151.11656"/>
      <trkpt lat="-33.75377" lon="151.11714"/>
      <trkpt lat="-33.75395" lon="151.11729"/>
      <trkpt lat="-33.75405" lon="151.11755"/>
      <trkpt lat="-33.7542" lon="151.11776"/>
      <trkpt lat="-33.75437" lon="151.11779"/>
      <trkpt lat="-33.75443" lon="151.1178"/>
      <trkpt lat="-33.75471" lon="151.11792"/>
      <trkpt lat="-33.75487" lon="151.11791"/>
      <trkpt lat="-33.75544" lon="151.11818"/>
      <trkpt lat="-33.75561" lon="151.11818"/>
      <trkpt lat="-33.75579" lon="151.11791"/>
      <trkpt lat="-33.75657" lon="151.11782"/>
      <trkpt lat="-33.75666" lon="151.11758"/>
      <trkpt lat="-33.7568" lon="151.11746"/>
      <trkpt lat="-33.75721" lon="151.11715"/>
      <trkpt lat="-33.75748" lon="151.11718"/>
      <trkpt lat="-33.75759" lon="151.11719"/>
      <trkpt lat="-33.7579" lon="151.11722"/>
      <trkpt lat="-33.75835" lon="151.11707"/>
      <trkpt lat="-33.75853" lon="151.11672"/>
      <trkpt lat="-33.75868" lon="151.11656"/>
      <trkpt lat="-33.75891" lon="151.11638"/>
      <trkpt lat="-33.75902" lon="151.11654"/>
      <trkpt lat="-33.75909" lon="151.11665"/>
      <trkpt lat="-33.75934" lon="151.11712"/>
      <trkpt lat="-33.75934" lon="151.11716"/>
      <trkpt lat="-33.75934" lon="151.11718"/>
      <trkpt lat="-33.7593" lon="151.11722"/>
      <trkpt lat="-33.75916" lon="151.11731"/>
      <trkpt lat="-33.75884" lon="151.11756"/>
      <trkpt lat="-33.75883" lon="151.11787"/>
      <trkpt lat="-33.75898" lon="151.11833"/>
      <trkpt lat="-33.75886" lon="151.11842"/>
      <trkpt lat="-33.75886" lon="151.11848"/>
      <trkpt lat="-33.75903" lon="151.11874"/>
      <trkpt lat="-33.75898" lon="151.11884"/>
      <trkpt lat="-33.75873" lon="151.11885"/>
      <trkpt lat="-33.75848" lon="151.11901"/>
      <trkpt lat="-33.75841" lon="151.11905"/>
      <trkpt lat="-33.75844" lon="151.11919"/>
      <trkpt lat="-33.75875" lon="151.11917"/>
      <trkpt lat="-33.75912" lon="151.11921"/>
      <trkpt lat="-33.75956" lon="151.11942"/>
      <trkpt lat="-33.75982" lon="151.11961"/>
      <trkpt lat="-33.76008" lon="151.11973"/>
      <trkpt lat="-33.76039" lon="151.11979"/>
      <trkpt lat="-33.76046" lon="151.11978"/>
      <trkpt lat="-33.76062" lon="151.11975"/>
      <trkpt lat="-33.76073" lon="151.11958"/>
      <trkpt lat="-33.76095" lon="151.1195"/>
      <trkpt lat="-33.76124" lon="151.11933"/>
      <trkpt lat="-33.76148" lon="151.11913"/>
      <trkpt lat="-33.76167" lon="151.11907"/>
      <trkpt lat="-33.762" lon="151.1188"/>
      <trkpt lat="-33.76212" lon="151.1188"/>
      <trkpt lat="-33.76221" lon="151.11886"/>
      <trkpt lat="-33.76229" lon="151.11888"/>
      <trkpt lat="-33.76245" lon="151.11911"/>
      <trkpt lat="-33.7625" lon="151.1192"/>
      <trkpt lat="-33.76257" lon="151.11933"/>
      <trkpt lat="-33.76271" lon="151.11948"/>
      <trkpt lat="-33.76287" lon="151.1196"/>
      <trkpt lat="-33.76299" lon="151.11964"/>
      <trkpt lat="-33.76311" lon="151.11966"/>
      <trkpt lat="-33.76327" lon="151.11974"/>
      <trkpt lat="-33.76339" lon="151.11982"/>
      <trkpt lat="-33.76349" lon="151.11992"/>
      <trkpt lat="-33.76357" lon="151.11994"/>
      <trkpt lat="-33.76373" lon="151.11989"/>
      <trkpt lat="-33.76377" lon="151.12014"/>
      <trkpt lat="-33.76379" lon="151.12031"/>
      <trkpt lat="-33.7638" lon="151.12033"/>
      <trkpt lat="-33.76387" lon="151.12048"/>
      <trkpt lat="-33.76403" lon="151.12052"/>
      <trkpt lat="-33.76418" lon="151.12052"/>
      <trkpt lat="-33.76443" lon="151.12047"/>
      <trkpt lat="-33.76516" lon="151.12095"/>
      <trkpt lat="-33.76545" lon="151.12117"/>
      <trkpt lat="-33.7657" lon="151.12145"/>
      <trkpt lat="-33.7659" lon="151.12157"/>
      <trkpt lat="-33.76594" lon="151.12162"/>
      <trkpt lat="-33.76609" lon="151.12215"/>
      <trkpt lat="-33.76635" lon="151.12184"/>
      <trkpt lat="-33.76642" lon="151.12179"/>
      <trkpt lat="-33.76657" lon="151.12168"/>
      <trkpt lat="-33.76673" lon="151.12136"/>
      <trkpt lat="-33.76689" lon="151.12118"/>
      <trkpt lat="-33.76704" lon="151.12118"/>
      <trkpt lat="-33.76712" lon="151.12121"/>
      <trkpt lat="-33.7675" lon="151.12155"/>
      <trkpt lat="-33.76756" lon="151.12166"/>
      <trkpt lat="-33.7676" lon="151.12199"/>
      <trkpt lat="-33.76774" lon="151.12211"/>
      <trkpt lat="-33.76813" lon="151.1222"/>
      <trkpt lat="-33.76828" lon="151.12226"/>
      <trkpt lat="-33.76865" lon="151.1223"/>
      <trkpt lat="-33.76882" lon="151.12238"/>
      <trkpt lat="-33.76893" lon="151.12253"/>
      <trkpt lat="-33.76898" lon="151.12264"/>
      <trkpt lat="-33.76901" lon="151.1228"/>
      <trkpt lat="-33.76904" lon="151.12295"/>
      <trkpt lat="-33.76905" lon="151.12297"/>
      <trkpt lat="-33.76926" lon="151.12318"/>
      <trkpt lat="-33.76977" lon="151.12356"/>
      <trkpt lat="-33.77009" lon="151.12391"/>
      <trkpt lat="-33.77036" lon="151.12426"/>
      <trkpt lat="-33.7706" lon="151.12437"/>
      <trkpt lat="-33.77079" lon="151.12452"/>
      <trkpt lat="-33.77119" lon="151.12482"/>
      <trkpt lat="-33.77153" lon="151.12529"/>
      <trkpt lat="-33.77169" lon="151.12545"/>
      <trkpt lat="-33.77173" lon="151.12553"/>
      <trkpt lat="-33.77176" lon="151.12563"/>
      <trkpt lat="-33.77177" lon="151.12576"/>
      <trkpt lat="-33.77178" lon="151.12586"/>
      <trkpt lat="-33.7719" lon="151.12588"/>
      <trkpt lat="-33.77204" lon="151.12577"/>
      <trkpt lat="-33.77206" lon="151.12573"/>
      <trkpt lat="-33.77208" lon="151.12568"/>
      <trkpt lat="-33.77207" lon="151.12557"/>
      <trkpt lat="-33.772" lon="151.12548"/>
      <trkpt lat="-33.77191" lon="151.12549"/>
      <trkpt lat="-33.77176" lon="151.12534"/>
      <trkpt lat="-33.77162" lon="151.12485"/>
      <trkpt lat="-33.77148" lon="151.12479"/>
      <trkpt lat="-33.77112" lon="151.1245"/>
      <trkpt lat="-33.77095" lon="151.12445"/>
      <trkpt lat="-33.77082" lon="151.12437"/>
      <trkpt lat="-33.77074" lon="151.12432"/>
      <trkpt lat="-33.77019" lon="151.1239"/>
      <trkpt lat="-33.77009" lon="151.12375"/>
      <trkpt lat="-33.76995" lon="151.12365"/>
      <trkpt lat="-33.76989" lon="151.12356"/>
      <trkpt lat="-33.76989" lon="151.12351"/>
      <trkpt lat="-33.76975" lon="151.1232"/>
      <trkpt lat="-33.76962" lon="151.12316"/>
      <trkpt lat="-33.76954" lon="151.1232"/>
      <trkpt lat="-33.7695" lon="151.12317"/>
      <trkpt lat="-33.76942" lon="151.12311"/>
      <trkpt lat="-33.76943" lon="151.12295"/>
      <trkpt lat="-33.76944" lon="151.12291"/>
      <trkpt lat="-33.76944" lon="151.12288"/>
      <trkpt lat="-33.76944" lon="151.12287"/>
      <trkpt lat="-33.76959" lon="151.12281"/>
      <trkpt lat="-33.7696" lon="151.12272"/>
      <trkpt lat="-33.76954" lon="151.12253"/>
      <trkpt lat="-33.76947" lon="151.12244"/>
      <trkpt lat="-33.76933" lon="151.12245"/>
      <trkpt lat="-33.76916" lon="151.12247"/>
      <trkpt lat="-33.7689" lon="151.12227"/>
      <trkpt lat="-33.76881" lon="151.12219"/>
      <trkpt lat="-33.76826" lon="151.12194"/>
      <trkpt lat="-33.76826" lon="151.12158"/>
      <trkpt lat="-33.76822" lon="151.12148"/>
      <trkpt lat="-33.76812" lon="151.1212"/>
      <trkpt lat="-33.76799" lon="151.12102"/>
      <trkpt lat="-33.76795" lon="151.1208"/>
      <trkpt lat="-33.76791" lon="151.12076"/>
      <trkpt lat="-33.76784" lon="151.12071"/>
      <trkpt lat="-33.76766" lon="151.12072"/>
      <trkpt lat="-33.76725" lon="151.12057"/>
      <trkpt lat="-33.76715" lon="151.12056"/>
      <trkpt lat="-33.7668" lon="151.12064"/>
      <trkpt lat="-33.76647" lon="151.12059"/>
      <trkpt lat="-33.76628" lon="151.12045"/>
      <trkpt lat="-33.76602" lon="151.12034"/>
      <trkpt lat="-33.7659" lon="151.12034"/>
      <trkpt lat="-33.76571" lon="151.12034"/>
      <trkpt lat="-33.7654" lon="151.12021"/>
      <trkpt lat="-33.76522" lon="151.12022"/>
      <trkpt lat="-33.76478" lon="151.12011"/>
      <trkpt lat="-33.76462" lon="151.12004"/>
      <trkpt lat="-33.7646" lon="151.11999"/>
      <trkpt lat="-33.7645" lon="151.11992"/>
      <trkpt lat="-33.76417" lon="151.11981"/>
      <trkpt lat="-33.76416" lon="151.11981"/>
      <trkpt lat="-33.76389" lon="151.11982"/>
      <trkpt lat="-33.76373" lon="151.11989"/>
      <trkpt lat="-33.76357" lon="151.11994"/>
      <trkpt lat="-33.76349" lon="151.11992"/>
      <trkpt lat="-33.76339" lon="151.11982"/>
      <trkpt lat="-33.76327" lon="151.11974"/>
      <trkpt lat="-33.76311" lon="151.11966"/>
      <trkpt lat="-33.76299" lon="151.11964"/>
      <trkpt lat="-33.76287" lon="151.1196"/>
      <trkpt lat="-33.76271" lon="151.11948"/>
      <trkpt lat="-33.76266" lon="151.11943"/>
      <trkpt lat="-33.76257" lon="151.11933"/>
      <trkpt lat="-33.76245" lon="151.11911"/>
      <trkpt lat="-33.76229" lon="151.11888"/>
      <trkpt lat="-33.76233" lon="151.11867"/>
      <trkpt lat="-33.76233" lon="151.11865"/>
      <trkpt lat="-33.76232" lon="151.11859"/>
      <trkpt lat="-33.76228" lon="151.11853"/>
      <trkpt lat="-33.76214" lon="151.11848"/>
      <trkpt lat="-33.76193" lon="151.11846"/>
      <trkpt lat="-33.76184" lon="151.11836"/>
      <trkpt lat="-33.76178" lon="151.1182"/>
      <trkpt lat="-33.76179" lon="151.11806"/>
      <trkpt lat="-33.76183" lon="151.11792"/>
      <trkpt lat="-33.76177" lon="151.11786"/>
      <trkpt lat="-33.76153" lon="151.11758"/>
      <trkpt lat="-33.76146" lon="151.11742"/>
      <trkpt lat="-33.76144" lon="151.11739"/>
      <trkpt lat="-33.76138" lon="151.11732"/>
      <trkpt lat="-33.7612" lon="151.11722"/>
      <trkpt lat="-33.76105" lon="151.11707"/>
      <trkpt lat="-33.76102" lon="151.11705"/>
      <trkpt lat="-33.76097" lon="151.11694"/>
      <trkpt lat="-33.76087" lon="151.1165"/>
      <trkpt lat="-33.76048" lon="151.1159"/>
      <trkpt lat="-33.76041" lon="151.11571"/>
      <trkpt lat="-33.76035" lon="151.11567"/>
      <trkpt lat="-33.76031" lon="151.11556"/>
      <trkpt lat="-33.76033" lon="151.11543"/>
      <trkpt lat="-33.76043" lon="151.1153"/>
      <trkpt lat="-33.7604" lon="151.11525"/>
      <trkpt lat="-33.76025" lon="151.11517"/>
      <trkpt lat="-33.76019" lon="151.11507"/>
      <trkpt lat="-33.76025" lon="151.11497"/>
      <trkpt lat="-33.76027" lon="151.11482"/>
      <trkpt lat="-33.76031" lon="151.11457"/>
      <trkpt lat="-33.76052" lon="151.11423"/>
      <trkpt lat="-33.76054" lon="151.11413"/>
      <trkpt lat="-33.76047" lon="151.11389"/>
      <trkpt lat="-33.76048" lon="151.1138"/>
      <trkpt lat="-33.76056" lon="151.11337"/>
      <trkpt lat="-33.76072" lon="151.11298"/>
      <trkpt lat="-33.76068" lon="151.11279"/>
      <trkpt lat="-33.76045" lon="151.1124"/>
      <trkpt lat="-33.76042" lon="151.11229"/>
      <trkpt lat="-33.76043" lon="151.11221"/>
      <trkpt lat="-33.7605" lon="151.11217"/>
      <trkpt lat="-33.76057" lon="151.11207"/>
      <trkpt lat="-33.76064" lon="151.11193"/>
      <trkpt lat="-33.76066" lon="151.11186"/>
      <trkpt lat="-33.76067" lon="151.11173"/>
      <trkpt lat="-33.76062" lon="151.11116"/>
      <trkpt lat="-33.76052" lon="151.11079"/>
      <trkpt lat="-33.76054" lon="151.11069"/>
      <trkpt lat="-33.76059" lon="151.11058"/>
      <trkpt lat="-33.76067" lon="151.11048"/>
      <trkpt lat="-33.761" lon="151.11027"/>
      <trkpt lat="-33.76123" lon="151.11004"/>
      <trkpt lat="-33.7613" lon="151.11"/>
      <trkpt lat="-33.76153" lon="151.10996"/>
      <trkpt lat="-33.76158" lon="151.1099"/>
      <trkpt lat="-33.7616" lon="151.10982"/>
      <trkpt lat="-33.7616" lon="151.10964"/>
      <trkpt lat="-33.76153" lon="151.10938"/>
      <trkpt lat="-33.76153" lon="151.10928"/>
      <trkpt lat="-33.76169" lon="151.10909"/>
      <trkpt lat="-33.76173" lon="151.10897"/>
      <trkpt lat="-33.76174" lon="151.10886"/>
      <trkpt lat="-33.76173" lon="151.10871"/>
      <trkpt lat="-33.76167" lon="151.10839"/>
      <trkpt lat="-33.76164" lon="151.10834"/>
      <trkpt lat="-33.76153" lon="151.10819"/>
      <trkpt lat="-33.76145" lon="151.10812"/>
      <trkpt lat="-33.76133" lon="151.10805"/>
      <trkpt lat="-33.76117" lon="151.10799"/>
      <trkpt lat="-33.76086" lon="151.1079"/>
      <trkpt lat="-33.76082" lon="151.10785"/>
      <trkpt lat="-33.76074" lon="151.10775"/>
      <trkpt lat="-33.7606" lon="151.10763"/>
      <trkpt lat="-33.7607" lon="151.10739"/>
      <trkpt lat="-33.76078" lon="151.10721"/>
      <trkpt lat="-33.76085" lon="151.10708"/>
      <trkpt lat="-33.76092" lon="151.10696"/>
      <trkpt lat="-33.76094" lon="151.10688"/>
      <trkpt lat="-33.76094" lon="151.10676"/>
      <trkpt lat="-33.7609" lon="151.10656"/>
      <trkpt lat="-33.76086" lon="151.10648"/>
      <trkpt lat="-33.76062" lon="151.10616"/>
      <trkpt lat="-33.76061" lon="151.10611"/>
      <trkpt lat="-33.76062" lon="151.10601"/>
      <trkpt lat="-33.76086" lon="151.10593"/>
      <trkpt lat="-33.7609" lon="151.10589"/>
      <trkpt lat="-33.76094" lon="151.10581"/>
      <trkpt lat="-33.76094" lon="151.10575"/>
      <trkpt lat="-33.76088" lon="151.10565"/>
      <trkpt lat="-33.76071" lon="151.10554"/>
      <trkpt lat="-33.76065" lon="151.10556"/>
      <trkpt lat="-33.76006" lon="151.10565"/>
      <trkpt lat="-33.75974" lon="151.10566"/>
      <trkpt lat="-33.75957" lon="151.10561"/>
      <trkpt lat="-33.7591" lon="151.10536"/>
      <trkpt lat="-33.75884" lon="151.10531"/>
      <trkpt lat="-33.75851" lon="151.10535"/>
      <trkpt lat="-33.75774" lon="151.10566"/>
      <trkpt lat="-33.75757" lon="151.10567"/>
      <trkpt lat="-33.75743" lon="151.1056"/>
      <trkpt lat="-33.75727" lon="151.10544"/>
      <trkpt lat="-33.75711" lon="151.10514"/>
      <trkpt lat="-33.75695" lon="151.10498"/>
      <trkpt lat="-33.75668" lon="151.10483"/>
      <trkpt lat="-33.75649" lon="151.10473"/>
      <trkpt lat="-33.7565" lon="151.10467"/>
      <trkpt lat="-33.75651" lon="151.10434"/>
      <trkpt lat="-33.7565" lon="151.10415"/>
      <trkpt lat="-33.75635" lon="151.10395"/>
      <trkpt lat="-33.75606" lon="151.10372"/>
      <trkpt lat="-33.7558" lon="151.10348"/>
      <trkpt lat="-33.7556" lon="151.10323"/>
      <trkpt lat="-33.75483" lon="151.10273"/>
      <trkpt lat="-33.75452" lon="151.10265"/>
      <trkpt lat="-33.75438" lon="151.10252"/>
      <trkpt lat="-33.75418" lon="151.10231"/>
      <trkpt lat="-33.75397" lon="151.10183"/>
      <trkpt lat="-33.75397" lon="151.10174"/>
      <trkpt lat="-33.75403" lon="151.10159"/>
      <trkpt lat="-33.75422" lon="151.10136"/>
      <trkpt lat="-33.75438" lon="151.10102"/>
      <trkpt lat="-33.75439" lon="151.1009"/>
      <trkpt lat="-33.75433" lon="151.10078"/>
      <trkpt lat="-33.75422" lon="151.1007"/>
      <trkpt lat="-33.75387" lon="151.10056"/>
      <trkpt lat="-33.75356" lon="151.10049"/>
      <trkpt lat="-33.75354" lon="151.10049"/>
      <trkpt lat="-33.75339" lon="151.10042"/>
      <trkpt lat="-33.75329" lon="151.10033"/>
      <trkpt lat="-33.7529" lon="151.10029"/>
      <trkpt lat="-33.7528" lon="151.10033"/>
      <trkpt lat="-33.75272" lon="151.10031"/>
      <trkpt lat="-33.75268" lon="151.10029"/>
      <trkpt lat="-33.75264" lon="151.10022"/>
      <trkpt lat="-33.75268" lon="151.10013"/>
      <trkpt lat="-33.75261" lon="151.1"/>
      <trkpt lat="-33.75252" lon="151.09983"/>
      <trkpt lat="-33.75233" lon="151.09948"/>
      <trkpt lat="-33.75214" lon="151.0988"/>
      <trkpt lat="-33.75219" lon="151.09846"/>
      <trkpt lat="-33.75227" lon="151.0984"/>
      <trkpt lat="-33.75238" lon="151.09831"/>
      <trkpt lat="-33.75245" lon="151.09821"/>
      <trkpt lat="-33.75231" lon="151.0977"/>
      <trkpt lat="-33.75199" lon="151.09754"/>
      <trkpt lat="-33.75183" lon="151.09745"/>
      <trkpt lat="-33.75183" lon="151.0972"/>
      <trkpt lat="-33.75187" lon="151.09705"/>
      <trkpt lat="-33.75192" lon="151.09697"/>
      <trkpt lat="-33.75207" lon="151.09677"/>
      <trkpt lat="-33.75211" lon="151.09655"/>
      <trkpt lat="-33.75206" lon="151.09637"/>
      <trkpt lat="-33.75202" lon="151.09622"/>
      <trkpt lat="-33.75217" lon="151.09546"/>
      <trkpt lat="-33.75231" lon="151.09529"/>
      <trkpt lat="-33.75241" lon="151.09518"/>
      <trkpt lat="-33.75249" lon="151.0946"/>
      <trkpt lat="-33.75248" lon="151.09437"/>
      <trkpt lat="-33.7524" lon="151.09369"/>
      <trkpt lat="-33.75226" lon="151.09294"/>
      <trkpt lat="-33.75228" lon="151.09237"/>
      <trkpt lat="-33.75239" lon="151.09183"/>
      <trkpt lat="-33.7524" lon="151.09145"/>
      <trkpt lat="-33.75214" lon="151.09097"/>
      <trkpt lat="-33.752" lon="151.09053"/>
      <trkpt lat="-33.75206" lon="151.09021"/>
      <trkpt lat="-33.75209" lon="151.09017"/>
      <trkpt lat="-33.75233" lon="151.0898"/>
      <trkpt lat="-33.7525" lon="151.08942"/>
      <trkpt lat="-33.75303" lon="151.08896"/>
      <trkpt lat="-33.75358" lon="151.08867"/>
      <trkpt lat="-33.75373" lon="151.08864"/>
      <trkpt lat="-33.75384" lon="151.08853"/>
      <trkpt lat="-33.75387" lon="151.08836"/>
      <trkpt lat="-33.75386" lon="151.08815"/>
      <trkpt lat="-33.75374" lon="151.08788"/>
      <trkpt lat="-33.75347" lon="151.0875"/>
      <trkpt lat="-33.75339" lon="151.08722"/>
      <trkpt lat="-33.7534" lon="151.08669"/>
      <trkpt lat="-33.75341" lon="151.08653"/>
      <trkpt lat="-33.75324" lon="151.08626"/>
      <trkpt lat="-33.75219" lon="151.08517"/>
      <trkpt lat="-33.75164" lon="151.08483"/>
      <trkpt lat="-33.75146" lon="151.08473"/>
      <trkpt lat="-33.75142" lon="151.08467"/>
      <trkpt lat="-33.75133" lon="151.08453"/>
      <trkpt lat="-33.75133" lon="151.08449"/>
      <trkpt lat="-33.7512" lon="151.08433"/>
      <trkpt lat="-33.75121" lon="151.08421"/>
      <trkpt lat="-33.75123" lon="151.08415"/>
      <trkpt lat="-33.75111" lon="151.08416"/>
      <trkpt lat="-33.751" lon="151.08423"/>
      <trkpt lat="-33.75091" lon="151.08417"/>
      <trkpt lat="-33.75082" lon="151.08417"/>
      <trkpt lat="-33.75079" lon="151.08406"/>
      <trkpt lat="-33.75077" lon="151.08397"/>
      <trkpt lat="-33.75075" lon="151.08396"/>
      <trkpt lat="-33.75074" lon="151.084"/>
      <trkpt lat="-33.7506" lon="151.08402"/>
      <trkpt lat="-33.75043" lon="151.08404"/>
      <trkpt lat="-33.75021" lon="151.08396"/>
      <trkpt lat="-33.75007" lon="151.08389"/>
      <trkpt lat="-33.74989" lon="151.08389"/>
      <trkpt lat="-33.74971" lon="151.08365"/>
      <trkpt lat="-33.74962" lon="151.08352"/>
      <trkpt lat="-33.74953" lon="151.08347"/>
      <trkpt lat="-33.74905" lon="151.08319"/>
      <trkpt lat="-33.74881" lon="151.08309"/>
      <trkpt lat="-33.74862" lon="151.08313"/>
      <trkpt lat="-33.74854" lon="151.08302"/>
      <trkpt lat="-33.74838" lon="151.08286"/>
      <trkpt lat="-33.74824" lon="151.08264"/>
      <trkpt lat="-33.74807" lon="151.08244"/>
      <trkpt lat="-33.74786" lon="151.0823"/>
      <trkpt lat="-33.74779" lon="151.08213"/>
      <trkpt lat="-33.74772" lon="151.08188"/>
      <trkpt lat="-33.74772" lon="151.08162"/>
      <trkpt lat="-33.74776" lon="151.08141"/>
      <trkpt lat="-33.74773" lon="151.08125"/>
      <trkpt lat="-33.74763" lon="151.08105"/>
      <trkpt lat="-33.74742" lon="151.08099"/>
      <trkpt lat="-33.7472" lon="151.08087"/>
      <trkpt lat="-33.74707" lon="151.08076"/>
      <trkpt lat="-33.74703" lon="151.08052"/>
      <trkpt lat="-33.74702" lon="151.08045"/>
      <trkpt lat="-33.74703" lon="151.08026"/>
      <trkpt lat="-33.74656" lon="151.08012"/>
      <trkpt lat="-33.74647" lon="151.08007"/>
      <trkpt lat="-33.74644" lon="151.07997"/>
      <trkpt lat="-33.74638" lon="151.0799"/>
      <trkpt lat="-33.74627" lon="151.07983"/>
      <trkpt lat="-33.74623" lon="151.07975"/>
      <trkpt lat="-33.74612" lon="151.07971"/>
      <trkpt lat="-33.74592" lon="151.07968"/>
      <trkpt lat="-33.74584" lon="151.07964"/>
      <trkpt lat="-33.74582" lon="151.07958"/>
      <trkpt lat="-33.74582" lon="151.07947"/>
      <trkpt lat="-33.74586" lon="151.0793"/>
      <trkpt lat="-33.74568" lon="151.07908"/>
      <trkpt lat="-33.7456" lon="151.079"/>
      <trkpt lat="-33.7455" lon="151.0789"/>
      <trkpt lat="-33.74532" lon="151.07879"/>
      <trkpt lat="-33.74513" lon="151.07872"/>
      <trkpt lat="-33.74496" lon="151.07867"/>
      <trkpt lat="-33.74438" lon="151.07868"/>
      <trkpt lat="-33.7442" lon="151.07864"/>
      <trkpt lat="-33.74404" lon="151.0786"/>
      <trkpt lat="-33.74398" lon="151.07856"/>
      <trkpt lat="-33.74367" lon="151.07867"/>
      <trkpt lat="-33.74365" lon="151.07868"/>
      <trkpt lat="-33.74361" lon="151.07869"/>
      <trkpt lat="-33.74357" lon="151.07832"/>
      <trkpt lat="-33.74352" lon="151.07833"/>
      <trkpt lat="-33.74347" lon="151.07834"/>
      <trkpt lat="-33.74338" lon="151.07837"/>
      <trkpt lat="-33.74331" lon="151.07834"/>
      <trkpt lat="-33.74325" lon="151.07836"/>
      <trkpt lat="-33.7431" lon="151.07832"/>
      <trkpt lat="-33.74309" lon="151.07832"/>
      <trkpt lat="-33.74308" lon="151.07846"/>
      <trkpt lat="-33.7432" lon="151.07854"/>
      <trkpt lat="-33.74332" lon="151.07875"/>
      <trkpt lat="-33.7433" lon="151.07898"/>
      <trkpt lat="-33.74315" lon="151.07916"/>
      <trkpt lat="-33.74217" lon="151.07933"/>
      <trkpt lat="-33.74202" lon="151.07921"/>
      <trkpt lat="-33.74207" lon="151.07901"/>
      <trkpt lat="-33.74245" lon="151.07892"/>
    </trkseg>
  </trk>
</gpx>