<?xml version="1.0" encoding="UTF-8"?>
<gpx version="1.1" creator="paceplot-fixture" xmlns="http://www.topografix.com/GPX/1/1">
  <trk>
    <name>Clean Test Track</name>
    <trkseg>
      <trkpt lat="-33.868800" lon="151.209300"></trkpt>
      <trkpt lat="-33.868350" lon="151.209300"></trkpt>
      <trkpt lat="-33.867900" lon="151.209300"></trkpt>
      <trkpt lat="-33.867450" lon="151.209300"></trkpt>
      <trkpt lat="-33.867000" lon="151.209300"></trkpt>
      <trkpt lat="-33.866550" lon="151.209300"></trkpt>
      <trkpt lat="-33.866100" lon="151.209300"></trkpt>
      <trkpt lat="-33.865650" lon="151.209300"></trkpt>
      <trkpt lat="-33.865200" lon="151.209300"></trkpt>
      <trkpt lat="-33.864750" lon="151.209300"></trkpt>
      <trkpt lat="-33.864300" lon="151.209300"></trkpt>
      <trkpt lat="-33.863850" lon="151.209300"></trkpt>
      <trkpt lat="-33.863400" lon="151.209300"></trkpt>
      <trkpt lat="-33.862950" lon="151.209300"></trkpt>
      <trkpt lat="-33.862500" lon="151.209300"></trkpt>
    </trkseg>
  </trk>
</gpx>
